{
    "links": {
        "self": "http://www.neowsapp.com/rest/v1/neo/3827433?api_key=iIulBulltgU6a56xZRHN4H3l9WmuAYTsLGpBGhQ2"
    },
    "id": "3827433",
    "neo_reference_id": "3827433",
    "name": "(2018 RC4)",
    "designation": "2018 RC4",
    "nasa_jpl_url": "http://ssd.jpl.nasa.gov/sbdb.cgi?sstr=3827433",
    "absolute_magnitude_h": 25.9,
    "estimated_diameter": {
        "kilometers": {
            "estimated_diameter_min": 0.0175612318,
            "estimated_diameter_max": 0.0392681082
        },
        "meters": {
            "estimated_diameter_min": 17.561231848,
            "estimated_diameter_max": 39.2681081809
        },
        "miles": {
            "estimated_diameter_min": 0.0109120402,
            "estimated_diameter_max": 0.0244000636
        },
        "feet": {
            "estimated_diameter_min": 57.6155918963,
            "estimated_diameter_max": 128.8323800441
        }
    },
    "is_potentially_hazardous_asteroid": false,
    "close_approach_data": [
        {
            "close_approach_date": "2016-08-26",
            "close_approach_date_full": "2016-Aug-26 02:49",
            "epoch_date_close_approach": 1472179740000,
            "relative_velocity": {
                "kilometers_per_second": "3.1906241942",
                "kilometers_per_hour": "11486.2470992466",
                "miles_per_hour": "7137.1072600847"
            },
            "miss_distance": {
                "astronomical": "1.3878660381",
                "lunar": "539.8798888209",
                "kilometers": "207621803.145098847",
                "miles": "129010206.1916122086"
            },
            "orbiting_body": "Juptr"
        },
        {
            "close_approach_date": "2018-07-10",
            "close_approach_date_full": "2018-Jul-10 09:12",
            "epoch_date_close_approach": 1531213920000,
            "relative_velocity": {
                "kilometers_per_second": "10.5898059592",
                "kilometers_per_hour": "38123.3014531146",
                "miles_per_hour": "23688.3369501311"
            },
            "miss_distance": {
                "astronomical": "0.0900691046",
                "lunar": "35.0368816894",
                "kilometers": "13474146.200967202",
                "miles": "8372446.2137913076"
            },
            "orbiting_body": "Mars"
        },
        {
            "close_approach_date": "2018-09-14",
            "close_approach_date_full": "2018-Sep-14 20:02",
            "epoch_date_close_approach": 1536955320000,
            "relative_velocity": {
                "kilometers_per_second": "8.0647056562",
                "kilometers_per_hour": "29032.9403622503",
                "miles_per_hour": "18039.9400823105"
            },
            "miss_distance": {
                "astronomical": "0.0268693822",
                "lunar": "10.4521896758",
                "kilometers": "4019602.345335914",
                "miles": "2497665.0791230532"
            },
            "orbiting_body": "Earth"
        },
        {
            "close_approach_date": "2122-12-01",
            "close_approach_date_full": "2122-Dec-01 22:08",
            "epoch_date_close_approach": 4825606080000,
            "relative_velocity": {
                "kilometers_per_second": "3.9586606998",
                "kilometers_per_hour": "14251.1785194204",
                "miles_per_hour": "8855.1281194698"
            },
            "miss_distance": {
                "astronomical": "1.82710744",
                "lunar": "710.74479416",
                "kilometers": "273331381.2851528",
                "miles": "169840244.73379664"
            },
            "orbiting_body": "Juptr"
        }
    ],
    "orbital_data": {
        "orbit_id": "6",
        "orbit_determination_date": "2018-09-19 07:00:23",
        "first_observation_date": "2018-09-10",
        "last_observation_date": "2018-09-18",
        "data_arc_in_days": 8,
        "observations_used": 51,
        "orbit_uncertainty": "7",
        "minimum_orbit_intersection": ".0222207",
        "jupiter_tisserand_invariant": "3.167",
        "epoch_osculation": "2459000.5",
        "eccentricity": ".5972228148365268",
        "semi_major_axis": "2.5389449437365",
        "inclination": "3.882970128216924",
        "ascending_node_longitude": "351.9166548477556",
        "orbital_period": "1477.67304775897",
        "perihelion_distance": "1.02262909772322",
        "perihelion_argument": "11.61618780310001",
        "aphelion_distance": "4.055260789749781",
        "perihelion_time": "2458385.919901386089",
        "mean_anomaly": "149.7278683106203",
        "mean_motion": ".2436262883362282",
        "equinox": "J2000",
        "orbit_class": {
            "orbit_class_type": "AMO",
            "orbit_class_description": "Near-Earth asteroid orbits similar to that of 1221 Amor",
            "orbit_class_range": "1.017 AU < q (perihelion) < 1.3 AU"
        }
    },
    "is_sentry_object": false
}